0 COSMOS 839 DEB
1 10463U 76067AG  13283.45003597 -.00000020  00000-0  12922-3 0  3592
2 10463 065.8237 242.7451 0696274 355.1779 088.8179 12.32205393675798
0 COSMOS 839 DEB
1 10463U 76067AG  13285.87187028 -.00000005  00000-0  18369-3 0  3608
2 10463 065.8241 238.0657 0696431 354.2576 031.9195 12.32205577676094
0 COSMOS 839 DEB
1 10463U 76067AG  13287.99185687  .00000002  00000-0  20952-3 0  3610
2 10463 065.8244 233.9694 0696557 353.4532 076.0445 12.32205873676350
0 COSMOS 839 DEB
1 10463U 76067AG  13290.28548016  .00000057  00000-0  40995-3 0  3625
2 10463 065.8244 229.5379 0696685 352.5823 170.4155 12.32205631676636
0 COSMOS 839 DEB
1 10463U 76067AG  13293.19423988  .00000037  00000-0  33788-3 0  3639
2 10463 065.8243 223.9179 0696852 351.4777 113.4925 12.32206487676994
0 COSMOS 839 DEB
1 10463U 76067AG  13295.38000128  .00000006  00000-0  22329-3 0  3645
2 10463 065.8243 219.6950 0696992 350.6473 089.3975 12.32207308677262
